start=new Date('2021-08-25T00:00:00.000Z').valueOf();
sats=[{"EPHEMERIS_TYPE":"0","MEAN_ELEMENT_THEORY":"SGP4","REF_FRAME":"TEME","TLE_LINE1":"1 47741U 21017V   21236.89063608 -.00001511  00000-0 -82596-4 0  9992","ARG_OF_PERICENTER":"74.1296","MEAN_ANOMALY":"285.9908","CENTER_NAME":"EARTH","LAUNCH_DATE":"2021-03-04","INCLINATION":"53.0562","TIME_SYSTEM":"UTC","SEMIMAJOR_AXIS":"6925.376","GP_ID":"183387050","CLASSIFICATION_TYPE":"U","NORAD_CAT_ID":"47741","MEAN_MOTION_DOT":"-0.00001511","FILE":"3102580","OBJECT_ID":"2021-017V","OBJECT_TYPE":"PAYLOAD","ECCENTRICITY":"0.00019570","RCS_SIZE":"LARGE","REV_AT_EPOCH":"2786","SITE":"AFETR","BSTAR":"-0.00008259600000","MEAN_MOTION":"15.06390902","DECAY_DATE":null,"COUNTRY_CODE":"US","OBJECT_NAME":"STARLINK-2154","MEAN_MOTION_DDOT":"0.0000000000000","RA_OF_ASC_NODE":"93.7662","PERIOD":"95.593","ELEMENT_SET_NO":"999","EPOCH":"2021-08-24T21:22:30.957312","TLE_LINE2":"2 47741  53.0562  93.7662 0001957  74.1296 285.9908 15.06390902 27869","APOAPSIS":"548.597","PERIAPSIS":"545.886"},{"RA_OF_ASC_NODE":"83.7044","ELEMENT_SET_NO":"999","PERIOD":"95.593","EPOCH":"2021-08-24T21:39:45.580896","APOAPSIS":"548.707","TLE_LINE2":"2 47742  53.0573  83.7044 0002131  90.6606 269.4627 15.06394242 28056","PERIAPSIS":"545.755","COUNTRY_CODE":"US","OBJECT_NAME":"STARLINK-2156","MEAN_MOTION_DDOT":"0.0000000000000","INCLINATION":"53.0573","TIME_SYSTEM":"UTC","CLASSIFICATION_TYPE":"U","GP_ID":"183387800","SEMIMAJOR_AXIS":"6925.366","MEAN_MOTION_DOT":"0.00000494","NORAD_CAT_ID":"47742","OBJECT_ID":"2021-017W","FILE":"3102580","REV_AT_EPOCH":"2805","RCS_SIZE":"LARGE","ECCENTRICITY":"0.00021310","OBJECT_TYPE":"PAYLOAD","BSTAR":"0.00005209300000","SITE":"AFETR","DECAY_DATE":null,"MEAN_MOTION":"15.06394242","EPHEMERIS_TYPE":"0","MEAN_ELEMENT_THEORY":"SGP4","REF_FRAME":"TEME","ARG_OF_PERICENTER":"90.6606","TLE_LINE1":"1 47742U 21017W   21236.90261089  .00000494  00000-0  52093-4 0  9994","MEAN_ANOMALY":"269.4627","LAUNCH_DATE":"2021-03-04","CENTER_NAME":"EARTH"},{"MEAN_ELEMENT_THEORY":"SGP4","EPHEMERIS_TYPE":"0","TLE_LINE1":"1 47743U 21017X   21236.86207216 -.00001431  00000-0 -77169-4 0  9997","ARG_OF_PERICENTER":"89.0974","REF_FRAME":"TEME","CENTER_NAME":"EARTH","LAUNCH_DATE":"2021-03-04","MEAN_ANOMALY":"271.0261","GP_ID":"183386548","SEMIMAJOR_AXIS":"6925.373","CLASSIFICATION_TYPE":"U","TIME_SYSTEM":"UTC","INCLINATION":"53.0556","FILE":"3102580","OBJECT_ID":"2021-017X","MEAN_MOTION_DOT":"-0.00001431","NORAD_CAT_ID":"47743","SITE":"AFETR","BSTAR":"-0.00007716900000","OBJECT_TYPE":"PAYLOAD","ECCENTRICITY":"0.00021440","RCS_SIZE":"LARGE","REV_AT_EPOCH":"2802","MEAN_MOTION":"15.06392062","DECAY_DATE":null,"COUNTRY_CODE":"US","MEAN_MOTION_DDOT":"0.0000000000000","OBJECT_NAME":"STARLINK-2157","PERIOD":"95.593","ELEMENT_SET_NO":"999","EPOCH":"2021-08-24T20:41:23.034624","RA_OF_ASC_NODE":"83.8788","TLE_LINE2":"2 47743  53.0556  83.8788 0002144  89.0974 271.0261 15.06392062 28026","APOAPSIS":"548.723","PERIAPSIS":"545.753"},{"REV_AT_EPOCH":"2804","RCS_SIZE":"LARGE","ECCENTRICITY":"0.00020910","OBJECT_TYPE":"PAYLOAD","BSTAR":"-0.00006801400000","SITE":"AFETR","DECAY_DATE":null,"MEAN_MOTION":"15.06391307","TIME_SYSTEM":"UTC","INCLINATION":"53.0569","CLASSIFICATION_TYPE":"U","SEMIMAJOR_AXIS":"6925.375","GP_ID":"183386299","MEAN_MOTION_DOT":"-0.00001294","NORAD_CAT_ID":"47744","OBJECT_ID":"2021-017Y","FILE":"3102580","REF_FRAME":"TEME","ARG_OF_PERICENTER":"88.6944","TLE_LINE1":"1 47744U 21017Y   21236.83995144 -.00001294  00000-0 -68014-4 0  9995","MEAN_ANOMALY":"271.4285","CENTER_NAME":"EARTH","LAUNCH_DATE":"2021-03-04","EPHEMERIS_TYPE":"0","MEAN_ELEMENT_THEORY":"SGP4","APOAPSIS":"548.688","TLE_LINE2":"2 47744  53.0569  83.9836 0002091  88.6944 271.4285 15.06391307 28042","PERIAPSIS":"545.792","RA_OF_ASC_NODE":"83.9836","PERIOD":"95.593","ELEMENT_SET_NO":"999","EPOCH":"2021-08-24T20:09:31.804416","MEAN_MOTION_DDOT":"0.0000000000000","OBJECT_NAME":"STARLINK-2158","COUNTRY_CODE":"US"},{"COUNTRY_CODE":"US","MEAN_MOTION_DDOT":"0.0000000000000","OBJECT_NAME":"STARLINK-2159","RA_OF_ASC_NODE":"93.8675","ELEMENT_SET_NO":"999","PERIOD":"95.593","EPOCH":"2021-08-24T20:50:40.267968","TLE_LINE2":"2 47745  53.0565  93.8675 0002236  77.1066 283.0172 15.06392743 27856","APOAPSIS":"548.784","PERIAPSIS":"545.687","EPHEMERIS_TYPE":"0","MEAN_ELEMENT_THEORY":"SGP4","REF_FRAME":"TEME","TLE_LINE1":"1 47745U 21017Z   21236.86852162  .00000723  00000-0  67495-4 0  9997","ARG_OF_PERICENTER":"77.1066","MEAN_ANOMALY":"283.0172","CENTER_NAME":"EARTH","LAUNCH_DATE":"2021-03-04","INCLINATION":"53.0565","TIME_SYSTEM":"UTC","GP_ID":"183387550","SEMIMAJOR_AXIS":"6925.371","CLASSIFICATION_TYPE":"U","MEAN_MOTION_DOT":"0.00000723","NORAD_CAT_ID":"47745","FILE":"3102580","OBJECT_ID":"2021-017Z","OBJECT_TYPE":"PAYLOAD","ECCENTRICITY":"0.00022360","REV_AT_EPOCH":"2785","RCS_SIZE":"LARGE","SITE":"AFETR","BSTAR":"0.00006749500000","MEAN_MOTION":"15.06392743","DECAY_DATE":null},{"RA_OF_ASC_NODE":"93.5887","EPOCH":"2021-08-24T22:15:35.856576","PERIOD":"95.593","ELEMENT_SET_NO":"999","PERIAPSIS":"545.925","TLE_LINE2":"2 47746  53.0550  93.5887 0001904  78.4863 281.6340 15.06390314 27856","APOAPSIS":"548.562","COUNTRY_CODE":"US","MEAN_MOTION_DDOT":"0.0000000000000","OBJECT_NAME":"STARLINK-2160","NORAD_CAT_ID":"47746","MEAN_MOTION_DOT":"-0.00001218","FILE":"3102580","OBJECT_ID":"2021-017AA","TIME_SYSTEM":"UTC","INCLINATION":"53.0550","SEMIMAJOR_AXIS":"6925.378","GP_ID":"183387301","CLASSIFICATION_TYPE":"U","MEAN_MOTION":"15.06390314","DECAY_DATE":null,"OBJECT_TYPE":"PAYLOAD","ECCENTRICITY":"0.00019040","REV_AT_EPOCH":"2785","RCS_SIZE":"LARGE","SITE":"AFETR","BSTAR":"-0.00006286600000","EPHEMERIS_TYPE":"0","MEAN_ELEMENT_THEORY":"SGP4","MEAN_ANOMALY":"281.6340","CENTER_NAME":"EARTH","LAUNCH_DATE":"2021-03-04","REF_FRAME":"TEME","TLE_LINE1":"1 47746U 21017AA  21236.92749834 -.00001218  00000-0 -62866-4 0  9995","ARG_OF_PERICENTER":"78.4863"},{"MEAN_MOTION_DDOT":"0.0000000000000","OBJECT_NAME":"STARLINK-2161","COUNTRY_CODE":"US","PERIAPSIS":"545.781","APOAPSIS":"548.712","TLE_LINE2":"2 47747  53.0570  83.9008 0002116  94.6937 265.4294 15.06389222 28029","PERIOD":"95.593","EPOCH":"2021-08-24T20:36:04.379328","ELEMENT_SET_NO":"999","RA_OF_ASC_NODE":"83.9008","CENTER_NAME":"EARTH","LAUNCH_DATE":"2021-03-04","MEAN_ANOMALY":"265.4294","ARG_OF_PERICENTER":"94.6937","TLE_LINE1":"1 47747U 21017AB  21236.85838402  .00000454  00000-0  49394-4 0  9998","REF_FRAME":"TEME","MEAN_ELEMENT_THEORY":"SGP4","EPHEMERIS_TYPE":"0","DECAY_DATE":null,"MEAN_MOTION":"15.06389222","BSTAR":"0.00004939400000","SITE":"AFETR","REV_AT_EPOCH":"2802","RCS_SIZE":"LARGE","OBJECT_TYPE":"PAYLOAD","ECCENTRICITY":"0.00021160","OBJECT_ID":"2021-017AB","FILE":"3102580","MEAN_MOTION_DOT":"0.00000454","NORAD_CAT_ID":"47747","CLASSIFICATION_TYPE":"U","SEMIMAJOR_AXIS":"6925.382","GP_ID":"183386049","TIME_SYSTEM":"UTC","INCLINATION":"53.0570"},{"EPHEMERIS_TYPE":"0","MEAN_ELEMENT_THEORY":"SGP4","REF_FRAME":"TEME","TLE_LINE1":"1 47748U 21017AC  21236.85101472  .00000772  00000-0  70752-4 0  9994","ARG_OF_PERICENTER":"96.0026","MEAN_ANOMALY":"264.1212","CENTER_NAME":"EARTH","LAUNCH_DATE":"2021-03-04","INCLINATION":"53.0572","TIME_SYSTEM":"UTC","SEMIMAJOR_AXIS":"6925.357","GP_ID":"183386799","CLASSIFICATION_TYPE":"U","NORAD_CAT_ID":"47748","MEAN_MOTION_DOT":"0.00000772","FILE":"3102580","OBJECT_ID":"2021-017AC","ECCENTRICITY":"0.00021900","OBJECT_TYPE":"PAYLOAD","RCS_SIZE":"LARGE","REV_AT_EPOCH":"2799","SITE":"AFETR","BSTAR":"0.00007075200000","MEAN_MOTION":"15.06397228","DECAY_DATE":null,"COUNTRY_CODE":"US","OBJECT_NAME":"STARLINK-2162","MEAN_MOTION_DDOT":"0.0000000000000","RA_OF_ASC_NODE":"83.9344","EPOCH":"2021-08-24T20:25:27.671808","PERIOD":"95.592","ELEMENT_SET_NO":"999","TLE_LINE2":"2 47748  53.0572  83.9344 0002190  96.0026 264.1212 15.06397228 27998","APOAPSIS":"548.739","PERIAPSIS":"545.705"},{"MEAN_ELEMENT_THEORY":"SGP4","EPHEMERIS_TYPE":"0","CENTER_NAME":"EARTH","LAUNCH_DATE":"2021-03-04","MEAN_ANOMALY":"271.8060","TLE_LINE1":"1 47749U 21017AD  21236.86575384 -.00001229  00000-0 -63580-4 0  9994","ARG_OF_PERICENTER":"88.3173","REF_FRAME":"TEME","FILE":"3102580","OBJECT_ID":"2021-017AD","NORAD_CAT_ID":"47749","MEAN_MOTION_DOT":"-0.00001229","SEMIMAJOR_AXIS":"6925.368","GP_ID":"183387051","CLASSIFICATION_TYPE":"U","TIME_SYSTEM":"UTC","INCLINATION":"53.0556","MEAN_MOTION":"15.06393798","DECAY_DATE":null,"SITE":"AFETR","BSTAR":"-0.00006358000000","OBJECT_TYPE":"PAYLOAD","ECCENTRICITY":"0.00021280","REV_AT_EPOCH":"2799","RCS_SIZE":"LARGE","COUNTRY_CODE":"US","MEAN_MOTION_DDOT":"0.0000000000000","OBJECT_NAME":"STARLINK-2163","EPOCH":"2021-08-24T20:46:41.131776","PERIOD":"95.593","ELEMENT_SET_NO":"999","RA_OF_ASC_NODE":"83.8618","PERIAPSIS":"545.759","TLE_LINE2":"2 47749  53.0556  83.8618 0002128  88.3173 271.8060 15.06393798 27996","APOAPSIS":"548.706"},{"MEAN_ELEMENT_THEORY":"SGP4","EPHEMERIS_TYPE":"0","ARG_OF_PERICENTER":"91.7369","TLE_LINE1":"1 47750U 21017AE  21236.90998071  .00000406  00000-0  46203-4 0  9990","REF_FRAME":"TEME","CENTER_NAME":"EARTH","LAUNCH_DATE":"2021-03-04","MEAN_ANOMALY":"268.3876","CLASSIFICATION_TYPE":"U","SEMIMAJOR_AXIS":"6925.344","GP_ID":"183387801","TIME_SYSTEM":"UTC","INCLINATION":"53.0563","OBJECT_ID":"2021-017AE","FILE":"3102580","NORAD_CAT_ID":"47750","MEAN_MOTION_DOT":"0.00000406","BSTAR":"0.00004620300000","SITE":"AFETR","REV_AT_EPOCH":"2800","RCS_SIZE":"LARGE","ECCENTRICITY":"0.00022340","OBJECT_TYPE":"PAYLOAD","DECAY_DATE":null,"MEAN_MOTION":"15.06401342","COUNTRY_CODE":"US","MEAN_MOTION_DDOT":"0.0000000000000","OBJECT_NAME":"STARLINK-2164","ELEMENT_SET_NO":"999","PERIOD":"95.592","EPOCH":"2021-08-24T21:50:22.333344","RA_OF_ASC_NODE":"83.6682","APOAPSIS":"548.757","TLE_LINE2":"2 47750  53.0563  83.6682 0002234  91.7369 268.3876 15.06401342 28002","PERIAPSIS":"545.662"}];
